start=new Date('2022-07-26T00:00:00.000Z').valueOf();
sats=[{"TLE_LINE1":"1 45371U 20019M   22206.67847992  .00000126  00000-0  27382-4 0  9991","TIME_SYSTEM":"UTC","OBJECT_NAME":"STARLINK-1287","ARG_OF_PERICENTER":"86.5823","MEAN_MOTION_DDOT":"0.0000000000000","APOAPSIS":"548.228","CLASSIFICATION_TYPE":"U","ELEMENT_SET_NO":"999","FILE":"3521711","SEMIMAJOR_AXIS":"6925.358","EPHEMERIS_TYPE":"0","DECAY_DATE":null,"MEAN_ANOMALY":"273.5332","TLE_LINE2":"2 45371  53.0573 345.8458 0001452  86.5823 273.5332 15.06397030130324","OBJECT_TYPE":"PAYLOAD","MEAN_MOTION_DOT":"0.00000126","MEAN_ELEMENT_THEORY":"SGP4","RA_OF_ASC_NODE":"345.8458","SITE":"AFETR","BSTAR":"0.00002738200000","CENTER_NAME":"EARTH","LAUNCH_DATE":"2020-03-18","PERIOD":"95.592","COUNTRY_CODE":"US","OBJECT_ID":"2020-019M","REV_AT_EPOCH":"13032","MEAN_MOTION":"15.06397030","EPOCH":"2022-07-25T16:17:00.665088","GP_ID":"208860239","RCS_SIZE":"LARGE","ECCENTRICITY":"0.00014520","NORAD_CAT_ID":"45371","REF_FRAME":"TEME","PERIAPSIS":"546.217","INCLINATION":"53.0573"},{"SEMIMAJOR_AXIS":"6925.334","EPHEMERIS_TYPE":"0","DECAY_DATE":null,"FILE":"3521711","CLASSIFICATION_TYPE":"U","APOAPSIS":"548.216","ELEMENT_SET_NO":"999","MEAN_MOTION_DOT":"-0.00001138","MEAN_ELEMENT_THEORY":"SGP4","RA_OF_ASC_NODE":"345.1820","OBJECT_TYPE":"PAYLOAD","TLE_LINE2":"2 45372  53.0549 345.1820 0001468  73.6393 286.4758 15.06404696130344","MEAN_ANOMALY":"286.4758","ARG_OF_PERICENTER":"73.6393","OBJECT_NAME":"STARLINK-1288","TIME_SYSTEM":"UTC","TLE_LINE1":"1 45372U 20019N   22206.82686756 -.00001138  00000-0 -57504-4 0  9993","MEAN_MOTION_DDOT":"0.0000000000000","GP_ID":"208858988","EPOCH":"2022-07-25T19:50:41.357184","OBJECT_ID":"2020-019N","MEAN_MOTION":"15.06404696","REV_AT_EPOCH":"13034","INCLINATION":"53.0549","PERIAPSIS":"546.183","NORAD_CAT_ID":"45372","REF_FRAME":"TEME","RCS_SIZE":"LARGE","ECCENTRICITY":"0.00014680","LAUNCH_DATE":"2020-03-18","CENTER_NAME":"EARTH","SITE":"AFETR","BSTAR":"-0.00005750400000","COUNTRY_CODE":"US","PERIOD":"95.592"},{"BSTAR":"-0.00012134000000","SITE":"AFETR","LAUNCH_DATE":"2020-03-18","CENTER_NAME":"EARTH","PERIOD":"95.593","COUNTRY_CODE":"US","EPOCH":"2022-07-25T19:24:09.789696","MEAN_MOTION":"15.06389820","REV_AT_EPOCH":"13034","OBJECT_ID":"2020-019P","GP_ID":"208859237","REF_FRAME":"TEME","NORAD_CAT_ID":"45373","ECCENTRICITY":"0.00012840","RCS_SIZE":"LARGE","PERIAPSIS":"546.356","INCLINATION":"53.0553","TLE_LINE1":"1 45373U 20019P   22206.80844664 -.00002088  00000-0 -12134-3 0  9990","ARG_OF_PERICENTER":"82.0258","OBJECT_NAME":"STARLINK-1295","TIME_SYSTEM":"UTC","MEAN_MOTION_DDOT":"0.0000000000000","FILE":"3521711","APOAPSIS":"548.134","CLASSIFICATION_TYPE":"U","ELEMENT_SET_NO":"999","DECAY_DATE":null,"EPHEMERIS_TYPE":"0","SEMIMAJOR_AXIS":"6925.380","MEAN_ANOMALY":"278.0876","MEAN_ELEMENT_THEORY":"SGP4","RA_OF_ASC_NODE":"345.2579","MEAN_MOTION_DOT":"-0.00002088","TLE_LINE2":"2 45373  53.0553 345.2579 0001284  82.0258 278.0876 15.06389820130341","OBJECT_TYPE":"PAYLOAD"},{"INCLINATION":"53.0558","PERIAPSIS":"546.364","NORAD_CAT_ID":"45374","REF_FRAME":"TEME","ECCENTRICITY":"0.00012590","RCS_SIZE":"LARGE","GP_ID":"208859989","EPOCH":"2022-07-25T19:18:50.953824","OBJECT_ID":"2020-019Q","REV_AT_EPOCH":"13034","MEAN_MOTION":"15.06392687","COUNTRY_CODE":"US","PERIOD":"95.593","LAUNCH_DATE":"2020-03-18","CENTER_NAME":"EARTH","SITE":"AFETR","BSTAR":"-0.00006039800000","MEAN_MOTION_DOT":"-0.00001181","MEAN_ELEMENT_THEORY":"SGP4","RA_OF_ASC_NODE":"345.2790","OBJECT_TYPE":"PAYLOAD","TLE_LINE2":"2 45374  53.0558 345.2790 0001259  95.1003 265.0129 15.06392687130349","MEAN_ANOMALY":"265.0129","SEMIMAJOR_AXIS":"6925.371","EPHEMERIS_TYPE":"0","DECAY_DATE":null,"FILE":"3521711","CLASSIFICATION_TYPE":"U","APOAPSIS":"548.108","ELEMENT_SET_NO":"999","MEAN_MOTION_DDOT":"0.0000000000000","OBJECT_NAME":"STARLINK-1300","ARG_OF_PERICENTER":"95.1003","TIME_SYSTEM":"UTC","TLE_LINE1":"1 45374U 20019Q   22206.80475641 -.00001181  00000-0 -60398-4 0  9995"},{"INCLINATION":"53.0542","PERIAPSIS":"546.217","REF_FRAME":"TEME","NORAD_CAT_ID":"45375","RCS_SIZE":"LARGE","ECCENTRICITY":"0.00014290","GP_ID":"208860739","EPOCH":"2022-07-25T19:40:04.654848","MEAN_MOTION":"15.06402311","REV_AT_EPOCH":"13034","OBJECT_ID":"2020-019R","COUNTRY_CODE":"US","PERIOD":"95.592","LAUNCH_DATE":"2020-03-18","CENTER_NAME":"EARTH","SITE":"AFETR","BSTAR":"0.00018014000000","RA_OF_ASC_NODE":"345.2046","MEAN_ELEMENT_THEORY":"SGP4","MEAN_MOTION_DOT":"0.00002403","TLE_LINE2":"2 45375  53.0542 345.2046 0001429  79.9642 280.1508 15.06402311130340","OBJECT_TYPE":"PAYLOAD","MEAN_ANOMALY":"280.1508","DECAY_DATE":null,"SEMIMAJOR_AXIS":"6925.341","EPHEMERIS_TYPE":"0","FILE":"3521711","ELEMENT_SET_NO":"999","APOAPSIS":"548.196","CLASSIFICATION_TYPE":"U","MEAN_MOTION_DDOT":"0.0000000000000","ARG_OF_PERICENTER":"79.9642","OBJECT_NAME":"STARLINK-1302","TIME_SYSTEM":"UTC","TLE_LINE1":"1 45375U 20019R   22206.81949832  .00002403  00000-0  18014-3 0  9998"},{"TLE_LINE1":"1 45376U 20019S   22206.77158009 -.00000028  00000-0  17034-4 0  9996","TIME_SYSTEM":"UTC","ARG_OF_PERICENTER":"88.5146","OBJECT_NAME":"STARLINK-1304","MEAN_MOTION_DDOT":"0.0000000000000","ELEMENT_SET_NO":"999","APOAPSIS":"548.163","CLASSIFICATION_TYPE":"U","FILE":"3521711","DECAY_DATE":null,"SEMIMAJOR_AXIS":"6925.341","EPHEMERIS_TYPE":"0","MEAN_ANOMALY":"271.6001","TLE_LINE2":"2 45376  53.0541 345.4305 0001383  88.5146 271.6001 15.06402614130332","OBJECT_TYPE":"PAYLOAD","MEAN_ELEMENT_THEORY":"SGP4","RA_OF_ASC_NODE":"345.4305","MEAN_MOTION_DOT":"-0.00000028","SITE":"AFETR","BSTAR":"0.00001703400000","CENTER_NAME":"EARTH","LAUNCH_DATE":"2020-03-18","PERIOD":"95.592","COUNTRY_CODE":"US","MEAN_MOTION":"15.06402614","REV_AT_EPOCH":"13033","OBJECT_ID":"2020-019S","EPOCH":"2022-07-25T18:31:04.519776","GP_ID":"208859487","ECCENTRICITY":"0.00013830","RCS_SIZE":"LARGE","REF_FRAME":"TEME","NORAD_CAT_ID":"45376","PERIAPSIS":"546.248","INCLINATION":"53.0541"},{"EPOCH":"2022-07-25T19:08:13.676928","OBJECT_ID":"2020-019T","REV_AT_EPOCH":"13034","MEAN_MOTION":"15.06394511","GP_ID":"208859737","NORAD_CAT_ID":"45377","REF_FRAME":"TEME","RCS_SIZE":"LARGE","ECCENTRICITY":"0.00014300","PERIAPSIS":"546.240","INCLINATION":"53.0559","BSTAR":"-0.00000019623000","SITE":"AFETR","LAUNCH_DATE":"2020-03-18","CENTER_NAME":"EARTH","PERIOD":"95.592","COUNTRY_CODE":"US","FILE":"3521711","ELEMENT_SET_NO":"999","APOAPSIS":"548.221","CLASSIFICATION_TYPE":"U","SEMIMAJOR_AXIS":"6925.365","EPHEMERIS_TYPE":"0","DECAY_DATE":null,"MEAN_ANOMALY":"269.0096","MEAN_MOTION_DOT":"-0.00000284","MEAN_ELEMENT_THEORY":"SGP4","RA_OF_ASC_NODE":"345.3023","OBJECT_TYPE":"PAYLOAD","TLE_LINE2":"2 45377  53.0559 345.3023 0001430  91.1057 269.0096 15.06394511130344","TLE_LINE1":"1 45377U 20019T   22206.79738052 -.00000284  00000-0 -19623-6 0  9994","ARG_OF_PERICENTER":"91.1057","OBJECT_NAME":"STARLINK-1305","TIME_SYSTEM":"UTC","MEAN_MOTION_DDOT":"0.0000000000000"},{"COUNTRY_CODE":"US","PERIOD":"95.592","CENTER_NAME":"EARTH","LAUNCH_DATE":"2020-03-18","BSTAR":"0.00006084200000","SITE":"AFETR","PERIAPSIS":"546.121","INCLINATION":"53.0539","ECCENTRICITY":"0.00015680","RCS_SIZE":"LARGE","NORAD_CAT_ID":"45378","REF_FRAME":"TEME","GP_ID":"208860489","OBJECT_ID":"2020-019U","MEAN_MOTION":"15.06402041","REV_AT_EPOCH":"13032","EPOCH":"2022-07-25T15:41:13.323552","MEAN_MOTION_DDOT":"0.0000000000000","TIME_SYSTEM":"UTC","OBJECT_NAME":"STARLINK-1310","ARG_OF_PERICENTER":"82.6357","TLE_LINE1":"1 45378U 20019U   22206.65362643  .00000625  00000-0  60842-4 0  9993","OBJECT_TYPE":"PAYLOAD","TLE_LINE2":"2 45378  53.0539 345.9502 0001568  82.6357 277.4810 15.06402041130324","MEAN_MOTION_DOT":"0.00000625","MEAN_ELEMENT_THEORY":"SGP4","RA_OF_ASC_NODE":"345.9502","MEAN_ANOMALY":"277.4810","SEMIMAJOR_AXIS":"6925.342","EPHEMERIS_TYPE":"0","DECAY_DATE":null,"CLASSIFICATION_TYPE":"U","APOAPSIS":"548.293","ELEMENT_SET_NO":"999","FILE":"3521711"},{"DECAY_DATE":null,"SEMIMAJOR_AXIS":"6925.380","EPHEMERIS_TYPE":"0","FILE":"3521711","APOAPSIS":"548.065","ELEMENT_SET_NO":"999","CLASSIFICATION_TYPE":"U","RA_OF_ASC_NODE":"345.3408","MEAN_ELEMENT_THEORY":"SGP4","MEAN_MOTION_DOT":"0.00001790","TLE_LINE2":"2 45379  53.0551 345.3408 0001183  91.7364 268.3760 15.06389609130349","OBJECT_TYPE":"PAYLOAD","MEAN_ANOMALY":"268.3760","OBJECT_NAME":"STARLINK-1319","ARG_OF_PERICENTER":"91.7364","TIME_SYSTEM":"UTC","TLE_LINE1":"1 45379U 20019V   22206.79002417  .00001790  00000-0  13908-3 0  9993","MEAN_MOTION_DDOT":"0.0000000000000","GP_ID":"208860240","EPOCH":"2022-07-25T18:57:38.088288","MEAN_MOTION":"15.06389609","REV_AT_EPOCH":"13034","OBJECT_ID":"2020-019V","INCLINATION":"53.0551","PERIAPSIS":"546.426","REF_FRAME":"TEME","NORAD_CAT_ID":"45379","RCS_SIZE":"LARGE","ECCENTRICITY":"0.00011830","LAUNCH_DATE":"2020-03-18","CENTER_NAME":"EARTH","BSTAR":"0.00013908000000","SITE":"AFETR","COUNTRY_CODE":"US","PERIOD":"95.593"},{"NORAD_CAT_ID":"45380","REF_FRAME":"TEME","ECCENTRICITY":"0.00013330","RCS_SIZE":"LARGE","PERIAPSIS":"546.338","INCLINATION":"53.0570","EPOCH":"2022-07-25T17:19:26.801472","OBJECT_ID":"2020-019W","MEAN_MOTION":"15.06384544","REV_AT_EPOCH":"13060","GP_ID":"208858989","PERIOD":"95.593","COUNTRY_CODE":"US","BSTAR":"-0.00009523100000","SITE":"AFETR","LAUNCH_DATE":"2020-03-18","CENTER_NAME":"EARTH","MEAN_ANOMALY":"277.9707","MEAN_MOTION_DOT":"-0.00001699","MEAN_ELEMENT_THEORY":"SGP4","RA_OF_ASC_NODE":"325.6550","OBJECT_TYPE":"PAYLOAD","TLE_LINE2":"2 45380  53.0570 325.6550 0001333  82.1433 277.9707 15.06384544130608","FILE":"3521711","ELEMENT_SET_NO":"999","APOAPSIS":"548.184","CLASSIFICATION_TYPE":"U","EPHEMERIS_TYPE":"0","SEMIMAJOR_AXIS":"6925.396","DECAY_DATE":null,"MEAN_MOTION_DDOT":"0.0000000000000","TLE_LINE1":"1 45380U 20019W   22206.72183798 -.00001699  00000-0 -95231-4 0  9990","ARG_OF_PERICENTER":"82.1433","OBJECT_NAME":"STARLINK-1207","TIME_SYSTEM":"UTC"}];
